# MOS2TAF
weather 

outputs :

[KIND 270254Z 29013KT 8SM -SN SCT010 BKN017 OVC034 M03/M04 A2998 RMK AO2 SNB51 SLP158 P0000 60000 I1000 I3000 T10281044 51008
 KIND 270154Z 30015KT 10SM OVC015 M03/M04 A2997 RMK AO2 SLP156 T10281044
 KIND 270054Z 30017G23KT 10SM OVC015 M02/M05 A2996 RMK AO2 SLP152 T10221050]

KIND FT GFS LAMP 2704/2805 0349Z 290/13KT OVC 1000-1900 P6SM M3/M5 PRECIP: 68%  SN: 100%  IC:   0%  LGT:  2 %
FM0500 280/13KT OVC 1000-1900 P6SM M3/M6 PRECIP: 24%  SN:  98%  IC:   2%  LGT:  2 %
FM0600 280/12KT OVC 1000-1900 P6SM M4/M6 PRECIP: 16%  SN:  99%  IC:   2%  LGT:  2 %
FM0700 280/11KT OVC 1000-1900 P6SM M4/M7 PRECIP: 10%  SN:  98%  IC:   2%  LGT:  0 %
FM0800 280/11KT OVC 1000-1900 P6SM M4/M7 PRECIP: 27%  SN: 100%  IC:   0%  LGT:  3 %
FM0900 270/10KT OVC 1000-1900 P6SM M5/M7 PRECIP:  4%  SN:  98%  IC:   3%  LGT:  1 %
FM1000 270/10KT OVC 1000-1900 P6SM M5/M8 PRECIP:  3%  SN:  99%  IC:   1%  LGT:  0 %
FM1100 270/10KT OVC 1000-1900 P6SM M6/M8 PRECIP: 17%  SN: 100%  IC:   0%  LGT:  0 %
FM1200 270/10KT OVC 1000-1900 P6SM M6/M8 PRECIP:  3%  SN: 100%  IC:   0%  LGT:  0 %
FM1300 280/10KT OVC 2000-3000 P6SM M6/M9 PRECIP: 11%  SN: 100%  IC:   0%  LGT:  0 %
FM1400 280/10KT OVC 1000-1900 P6SM M6/M9 PRECIP: 13%  SN: 100%  IC:   0%  LGT:  0 %
FM1500 280/11KT OVC 1000-1900 P6SM M6/M9 PRECIP: 13%  SN: 100%  IC:   0%  LGT:  0 %
FM1600 270/12KT BKN 2000-3000 P6SM M5/M9 PRECIP:  8%  SN: 100%  IC:   0%  LGT:  0 %
FM1700 280/12KT BKN 2000-3000 P6SM M4/M9 PRECIP:  2%  SN: 100%  IC:   0%  LGT:  0 %
FM1800 280/13KT BKN 2000-3000 P6SM M4/M9 PRECIP:  3%  SN: 100%  IC:   0%  LGT:  0 %
FM1900 280/13KT SCT 2000-3000 P6SM M4/M9 PRECIP:  2%  SN: 100%  IC:   0%  LGT:  0 %
FM2000 280/13KT BKN 2000-3000 P6SM M4/M10 PRECIP:  1%  SN: 100%  IC:   0%  LGT:  0 %
FM2100 280/14KT SCT 3100-6500 P6SM M4/M10 PRECIP:  2%  SN: 100%  IC:   0%  LGT:  0 %
FM2200 280/13KT BKN 3100-6500 P6SM M4/M10 PRECIP:  1%  SN: 100%  IC:   0%  LGT:  0 %
FM2300 290/13KT BKN 3100-6500 P6SM M5/M10 PRECIP:  1%  SN: 100%  IC:   0%  LGT:  0 %
FM0000 280/13KT BKN 3100-6500 P6SM M5/M11 PRECIP:  0%  SN: 100%  IC:   0%  LGT:  0 %
FM0100 280/12KT OVC 3100-6500 P6SM M6/M11 PRECIP:  1%  SN: 100%  IC:   0%  LGT:  0 %
FM0200 290/12KT OVC 3100-6500 P6SM M6/M11 PRECIP:  2%  SN: 100%  IC:   0%  LGT:  0 %
FM0300 290/11KT OVC 3100-6500 P6SM M7/M11 PRECIP:  4%  SN: 100%  IC:   0%  LGT:  0 %

KIND FT NAM MOS 2706/3006 0349Z 280/14KT OVC 2000-3000 P6SM M4/M8
FM0900 280/11KT OVC 2000-3000 P6SM M5/M8
FM1200 280/12KT OVC 2000-3000 P6SM M6/M8
FM1500 280/11KT OVC 2000-3000 P6SM M3/M8
FM1800 280/13KT OVC 2000-3000 P6SM M2/M9
FM2100 280/13KT OVC 2000-3000 P6SM M2/M9
FM0000 280/11KT OVC 3100-6500 P6SM M4/M9
FM0300 280/11KT OVC 3100-6500 P6SM M6/M10

KIND FT GFS MOS 2700/30024 0349Z 300/16KT OVC 1000-1900 6SM BR M3/M5
FM0300 290/13KT OVC 2000-3000 P6SM M4/M6
FM0600 280/11KT OVC 2000-3000 P6SM M5/M8
FM0900 280/09KT OVC 2000-3000 P6SM M6/M9
FM1200 280/10KT OVC 2000-3000 P6SM M7/M10
FM1500 280/10KT BKN 12000 P6SM M5/M9
FM1800 280/13KT BKN 3100-6500 P6SM M3/M11
FM2100 280/13KT BKN 12000 P6SM M3/M11
